NOAA 18                 
1 28654U 05018A   26032.87090961  .00000070  00000+0  60257-4 0  9992
2 28654  98.8219 114.4688 0014503 171.6342 188.5076 14.13702745 67195
NOAA 19                 
1 33591U 09005A   26032.91662153  .00000066  00000+0  59184-4 0  9993
2 33591  98.9681 103.6144 0014489  56.0701 304.1847 14.13449476875378
SUOMI NPP               
1 37849U 11061A   26032.93682922  .00000091  00000+0  64344-4 0  9998
2 37849  98.7829 334.8326 0001889  32.2257 327.9034 14.19532493739257
NOAA 20 (JPSS-1)        
1 43013U 17073A   26032.88082598  .00000080  00000+0  58736-4 0  9990
2 43013  98.7654 333.6329 0000614  16.8843 343.2353 14.19525980425279
