[{"OBJECT_NAME":"NOAA 18","OBJECT_ID":"2005-018A","EPOCH":"2026-02-01T20:54:06.590304","MEAN_MOTION":14.13702745,"ECCENTRICITY":0.00145035,"INCLINATION":98.8219,"RA_OF_ASC_NODE":114.4688,"ARG_OF_PERICENTER":171.6342,"MEAN_ANOMALY":188.5076,"EPHEMERIS_TYPE":0,"CLASSIFICATION_TYPE":"U","NORAD_CAT_ID":28654,"ELEMENT_SET_NO":999,"REV_AT_EPOCH":6719,"BSTAR":6.0257298e-5,"MEAN_MOTION_DOT":7.0e-7,"MEAN_MOTION_DDOT":0},{"OBJECT_NAME":"NOAA 19","OBJECT_ID":"2009-005A","EPOCH":"2026-02-01T21:59:56.100192","MEAN_MOTION":14.13449476,"ECCENTRICITY":0.00144896,"INCLINATION":98.9681,"RA_OF_ASC_NODE":103.6144,"ARG_OF_PERICENTER":56.0701,"MEAN_ANOMALY":304.1847,"EPHEMERIS_TYPE":0,"CLASSIFICATION_TYPE":"U","NORAD_CAT_ID":33591,"ELEMENT_SET_NO":999,"REV_AT_EPOCH":87537,"BSTAR":5.9184296e-5,"MEAN_MOTION_DOT":6.6e-7,"MEAN_MOTION_DDOT":0},{"OBJECT_NAME":"SUOMI NPP","OBJECT_ID":"2011-061A","EPOCH":"2026-02-01T22:29:02.044608","MEAN_MOTION":14.19532493,"ECCENTRICITY":0.0001889,"INCLINATION":98.7829,"RA_OF_ASC_NODE":334.8326,"ARG_OF_PERICENTER":32.2257,"MEAN_ANOMALY":327.9034,"EPHEMERIS_TYPE":0,"CLASSIFICATION_TYPE":"U","NORAD_CAT_ID":37849,"ELEMENT_SET_NO":999,"REV_AT_EPOCH":73925,"BSTAR":6.4343672e-5,"MEAN_MOTION_DOT":9.1e-7,"MEAN_MOTION_DDOT":0},{"OBJECT_NAME":"NOAA 20 (JPSS-1)","OBJECT_ID":"2017-073A","EPOCH":"2026-02-01T21:08:23.364672","MEAN_MOTION":14.1952598,"ECCENTRICITY":6.147e-5,"INCLINATION":98.7654,"RA_OF_ASC_NODE":333.6329,"ARG_OF_PERICENTER":16.8843,"MEAN_ANOMALY":343.2353,"EPHEMERIS_TYPE":0,"CLASSIFICATION_TYPE":"U","NORAD_CAT_ID":43013,"ELEMENT_SET_NO":999,"REV_AT_EPOCH":42527,"BSTAR":5.8735574e-5,"MEAN_MOTION_DOT":8.0e-7,"MEAN_MOTION_DDOT":0}]
